{
  "version": 0.6,
  "generator": "Overpass API 0.7.58.3 b33c3320",
  "osm3s": {
    "timestamp_osm_base": "2022-06-22T04:03:02Z",
    "timestamp_areas_base": "2022-06-22T03:21:25Z",
    "copyright": "The data included in this document is from www.openstreetmap.org. The data is made available under ODbL."
  },
  "elements": [

{
  "type": "node",
  "id": 29922899,
  "lat": 28.2095380,
  "lon": 83.9914020,
  "tags": {
    "capital": "4",
    "ele": "900",
    "gns:ufi": "-1022488",
    "int_name": "Pokhara",
    "is_capital": "municipality",
    "name": "पोखरा",
    "name:bn": "পোখারা",
    "name:cs": "Pókhara",
    "name:de": "Pokhara",
    "name:en": "Pokhara",
    "name:es": "Pokhara",
    "name:fr": "Pokhara",
    "name:hi": "पोखरा",
    "name:ja": "ポカラ",
    "name:ne": "पोखरा",
    "name:ru": "Покхара",
    "name:ta": "போக்காரா",
    "name:uk": "Покгара",
    "name:zh": "博卡拉",
    "place": "city",
    "population": "200000",
    "source": "GNS;Landsat",
    "website": "https://pokharamun.gov.np/",
    "wikidata": "Q6640",
    "wikipedia": "en:Pokhara"
  }
},
{
  "type": "node",
  "id": 67157058,
  "lat": 27.7083170,
  "lon": 85.3205817,
  "tags": {
    "admin_level": "2",
    "alt_name": "य",
    "capital": "yes",
    "capital_ISO3166-1": "yes",
    "ele": "1355",
    "int_name": "Kathmandu",
    "name": "काठमाडौं",
    "name:af": "Katmandoe",
    "name:am": "ካትማንዱ",
    "name:an": "Katmandú",
    "name:ar": "كاثماندو",
    "name:az": "Katmandu",
    "name:bat-smg": "Katmandū",
    "name:be": "Катманду",
    "name:be-tarask": "Катманду",
    "name:bg": "Катманду",
    "name:bh": "काठमाडौं",
    "name:bn": "কাঠমান্ডু",
    "name:bo": "ཀ་ཏ་མན་ཏུ།",
    "name:bs": "Katmandu",
    "name:ca": "Katmandú",
    "name:ckb": "کاتماندوو",
    "name:cs": "Káthmándú",
    "name:da": "Katmandu",
    "name:de": "Kathmandu",
    "name:el": "Κατμαντού",
    "name:en": "Kathmandu",
    "name:eo": "Katmanduo",
    "name:es": "Katmandú",
    "name:et": "Katmandu",
    "name:eu": "Katmandu",
    "name:fa": "کاتماندو",
    "name:fr": "Katmandou",
    "name:fy": "Katmandû",
    "name:gl": "Katmandu - काठमांडौ",
    "name:gu": "કાઠમંડુ",
    "name:he": "קטמנדו",
    "name:hi": "काठमांडू",
    "name:hr": "Katmandu",
    "name:hsb": "Katmandu",
    "name:ht": "Katmandou",
    "name:hu": "Katmandu",
    "name:hy": "Կատմանդու",
    "name:io": "Katmandu",
    "name:is": "Katmandú",
    "name:it": "Katmandu",
    "name:ja": "カトマンズ",
    "name:ka": "კატმანდუ",
    "name:kk": "Катманду",
    "name:kn": "ಕಾಠ್ಮಂಡು",
    "name:ko": "카트만두",
    "name:lb": "Katmandu",
    "name:lij": "Katmandu",
    "name:lt": "Katmandu",
    "name:lv": "Katmandu",
    "name:mk": "Катманду",
    "name:ml": "കാഠ്മണ്ഡു",
    "name:mn": "Катманду",
    "name:mr": "काठमांडू",
    "name:ne": "काठमाडौं",
    "name:new": "येँ",
    "name:nl": "Kathmandu",
    "name:nn": "Katmandu",
    "name:no": "Katmandu",
    "name:nov": "Katmandu",
    "name:oc": "Katmandó",
    "name:os": "Катманду",
    "name:pl": "Katmandu",
    "name:pnb": "کھٹمنڈو",
    "name:pt": "Catmandu",
    "name:ru": "Катманду",
    "name:sa": "काट्मण्डू",
    "name:sh": "Katmandu",
    "name:si": "කත්මන්ඩු",
    "name:sk": "Káthmandu",
    "name:sl": "Katmandu",
    "name:sr": "Катманду",
    "name:sv": "Katmandu",
    "name:ta": "காட்மாண்டூ",
    "name:te": "ఖాట్మండు",
    "name:tg": "Катманду",
    "name:th": "กาฐมาณฑุ",
    "name:tr": "Katmandu",
    "name:ug": "كاتماندۇ",
    "name:uk": "Катманду",
    "name:ur": "کھٹمنڈو",
    "name:vi": "Kathmandu",
    "name:vo": "Kathmandau",
    "name:yue": "加德滿都",
    "name:zh": "加德满都",
    "name:zh-Hans": "加德满都",
    "nat_name": "काठमांडौ",
    "place": "city",
    "population": "975000",
    "wikidata": "Q3037",
    "wikipedia": "en:Kathmandu"
  }
},
{
  "type": "node",
  "id": 282864466,
  "lat": 28.0589030,
  "lon": 81.6258470,
  "tags": {
    "is_in": "nepal",
    "name": "नेपालगन्ज",
    "name:en": "Nepalgunj",
    "name:fr": "Nepalganj",
    "name:hi": "नेपालगंज",
    "name:ja": "ネパールガンジ",
    "name:kn": "ನೇಪಾಳಗಂಜ್",
    "name:ne": "नेपालगन्ज",
    "place": "town",
    "population": "72503",
    "source:population": "http://cbs.gov.np/wp-content/uploads/2012/11/VDC_Municipality.pdf",
    "wikidata": "Q1025462",
    "wikipedia": "en:Nepalgunj"
  }
},
{
  "type": "node",
  "id": 296305204,
  "lat": 28.1917807,
  "lon": 81.6849712,
  "tags": {
    "int_name": "Kohalpur",
    "is_in": "Banke, Bheri Zone, Nepal",
    "name": "Kohalpur",
    "name:en": "Kohalpur",
    "name:ne": "कोहलपुर",
    "place": "town",
    "population": "40,000",
    "wikidata": "Q3416596",
    "wikipedia": "en:Kohalpur"
  }
},
{
  "type": "node",
  "id": 296306218,
  "lat": 27.4295853,
  "lon": 85.0326586,
  "tags": {
    "alt_name_1": "Hetauda Bazar",
    "alt_name_2": "Hitura",
    "alt_name_3": "Hithaura",
    "alt_name_4": "Hetaunda",
    "alt_name_5": "Hetaura",
    "alt_name_6": "Hetauda",
    "capital": "4",
    "name": "हेटौडा",
    "name:ar": "هيتودا",
    "name:az-Arab": "هیتودا",
    "name:azb": "هیتودا",
    "name:en": "Hetauda",
    "name:fa": "هتودا",
    "name:hi": "हेटौडा",
    "name:ja": "ヘトウラ",
    "name:ks": "ہیٹوڈا",
    "name:ne": "हेटौडा",
    "name:pl": "Hetauda",
    "name:ru": "Хетауде",
    "name:ta": "கடுடா",
    "name:ur": "ہیٹوڈا",
    "name:zh": "黑道达/黑道達",
    "name:zh-Hant": "黑道达",
    "place": "city",
    "wikidata": "Q11285",
    "wikipedia": "ne:हेटौँडा उपमहानगरपालिका",
    "wikipedia:ur": "ہیٹوڈا"
  }
},
{
  "type": "node",
  "id": 329222054,
  "lat": 26.4623007,
  "lon": 87.2816170,
  "tags": {
    "capital": "5",
    "is_in:country": "Nepal",
    "is_in:county": "Morang District",
    "is_in:state": "Kosi Zone",
    "name": "बिराटनगर",
    "name:ar": "بيراتنغر",
    "name:bn": "বিরাটনগর",
    "name:en": "Biratnagar",
    "name:fa": "بیراتنگر",
    "name:hi": "बिराटनगर",
    "name:ja": "ビラートナガル",
    "name:kn": "ಬಿರಾತನಗರ",
    "name:ne": "बिराटनगर",
    "name:pl": "Biratnagar",
    "name:ru": "Биратнагар",
    "name:ur": "بیرات نگر",
    "place": "city",
    "population": "166674",
    "source": "wikipedia",
    "wikidata": "Q8247",
    "wikipedia": "en:Biratnagar"
  }
},
{
  "type": "node",
  "id": 567090203,
  "lat": 27.6806167,
  "lon": 84.4308773,
  "tags": {
    "capital": "5",
    "is_in": "Nepal, Asia",
    "name": "Bharatpur",
    "name:en": "Bharatpur",
    "name:fr": "Bhâratpur",
    "name:hi": "भरतपुर",
    "name:ja": "バラトプル",
    "name:ne": "भरतपुर",
    "name:pl": "Bharatpur",
    "name:ru": "Бхаратпур",
    "name:ta": "பரத்பூர்",
    "name:te": "భరత్పూర్",
    "place": "city",
    "population": "143836",
    "source:population": "French Wikipedia",
    "wikidata": "Q250220",
    "wikipedia": "en:Bharatpur, Nepal"
  }
},
{
  "type": "node",
  "id": 567974486,
  "lat": 27.9817718,
  "lon": 83.7572281,
  "tags": {
    "flag_skip": "lon",
    "gns:ufi": "-1022782",
    "name": "Wāling",
    "place": "town",
    "population": "24006",
    "source": "GNS",
    "wikidata": "Q1835785",
    "wikipedia": "en:Waling"
  }
},
{
  "type": "node",
  "id": 575591611,
  "lat": 26.6650146,
  "lon": 87.7011507,
  "tags": {
    "int_name": "Damak",
    "is_in": "Jhapa, Mechi, Nepal",
    "name": "Damak",
    "name:ar": "دمك",
    "name:bn": "দমক",
    "name:en": "Damak",
    "name:fa": "دمک",
    "name:ja": "ダマク",
    "name:ne": "दमक",
    "name:ur": "دمک",
    "place": "city",
    "population": "75102",
    "source:population": "http://cbs.gov.np/image/data/Population/VDC-Municipality%20in%20detail/VDC_Municipality.pdf",
    "wikidata": "Q1458001",
    "wikipedia": "en:Damak"
  }
},
{
  "type": "node",
  "id": 575832041,
  "lat": 27.5127260,
  "lon": 83.4531480,
  "tags": {
    "alt_name": "Bhairahawa",
    "alt_name_1": "Bhairwa",
    "alt_name_2": "Bhairawa",
    "alt_name_3": "Siddharthanagar",
    "alt_name_4": "Bhairawa",
    "alt_name_5": "Bhairhwa",
    "capital": "5",
    "gns:ufi": "-1021745",
    "int_name": "Bhairahawa",
    "name": "Siddhartanagar",
    "name:hi": "सिद्धार्थनगर",
    "name:ja": "シッダルタナガル",
    "name:ne": "सिद्धार्थनगर",
    "place": "town",
    "population": "63483",
    "source": "GNS",
    "source:population": "French Wikipedia",
    "wikidata": "Q1530936",
    "wikipedia": "en:Siddharthanagar"
  }
},
{
  "type": "node",
  "id": 575866576,
  "lat": 27.0135196,
  "lon": 84.8763804,
  "tags": {
    "capital": "5",
    "int_name": "Birganj",
    "is_in": "Parsa, Narayani, Nepal",
    "name": "बिरगंज",
    "name:ar": "برغنج",
    "name:de": "Birganj",
    "name:en": "Birgunj",
    "name:fa": "برگنج",
    "name:hi": "बिरगंज",
    "name:ja": "ビールガンジ",
    "name:ne": "बिरगंज",
    "name:pl": "Birgunj",
    "name:ru": "Биргандж",
    "name:ur": "برگنج",
    "place": "city",
    "population": "135904",
    "source:population": "French Wikipedia",
    "wikidata": "Q8252",
    "wikipedia": "en:Birgunj"
  }
},
{
  "type": "node",
  "id": 723880699,
  "lat": 27.6767339,
  "lon": 85.3168050,
  "tags": {
    "alt_name": "Patan",
    "capital": "5",
    "is_in": "Nepal",
    "name": "Lalitpur",
    "name:cs": "Lalitpur",
    "name:en": "Lalitpur",
    "name:es": "Lalitpur",
    "name:fr": "Lalitpur",
    "name:hi": "ललितपुर",
    "name:ja": "ラリトプル",
    "name:kn": "ಪಾಟನ್",
    "name:ne": "ललितपुर",
    "name:new": "यल",
    "name:zh": "拉利特普尔",
    "official_name": "Lalitpur Sub-Metropolitan City",
    "place": "city",
    "population": "254000",
    "source": "Wikipedia",
    "wikidata": "Q6647",
    "wikipedia": "en:Lalitpur, Nepal"
  }
},
{
  "type": "node",
  "id": 806482934,
  "lat": 26.7284541,
  "lon": 85.9249005,
  "tags": {
    "capital": "4",
    "is_in:country": "Nepal",
    "name": "Janakpur",
    "name:be": "Джанакпур",
    "name:bn": "জনকপুর",
    "name:en": "Janakpur",
    "name:fr": "Janakpur",
    "name:hi": "जनकपुर",
    "name:ja": "ジャナクプル",
    "name:kn": "ಜನಕಪುರ",
    "name:ne": "जनकपुर",
    "name:pl": "Janakpur",
    "name:ru": "Джанакпур",
    "name:ta": "ஜனக்பூர்",
    "place": "city",
    "population": "95000",
    "wikidata": "Q378649",
    "wikipedia": "en:Janakpur, Nepal"
  }
},
{
  "type": "node",
  "id": 817072708,
  "lat": 26.8126101,
  "lon": 87.2838100,
  "tags": {
    "is_in": "Nepal, Sunsari",
    "name": "Dharan",
    "name:bn": "ধারান",
    "name:en": "Dharan",
    "name:ja": "ダーラン",
    "name:ne": "धरान",
    "name:pl": "Dharan",
    "place": "city",
    "wikidata": "Q8254",
    "wikipedia": "en:Dharan"
  }
},
{
  "type": "node",
  "id": 1043713484,
  "lat": 28.2651055,
  "lon": 83.6029924,
  "tags": {
    "alt_name": "Baglung",
    "alt_name_1": "Baglung Bazar",
    "capital": "5",
    "gns:ufi": "-1021654",
    "hlcit:code": "524 3 08 43 3 001",
    "is_in:country": "Nepal",
    "is_in:district": "बागलुङ",
    "is_in:vdc": "Baglung Municipality",
    "is_in:zone": "Dhawalagiri",
    "name": "Bāglung",
    "name:ja": "バグルン",
    "name:ne": "बागलुङ",
    "name:uk": "Баґлунґ",
    "place": "town",
    "population": "29360",
    "source": "OCHA-ASIA",
    "unocha:pcode": "W-DHA-45-031",
    "unocha:vil_code": "W-DHA-45-031-02-001",
    "unocha:vname": "Kalika N.P.",
    "wikidata": "Q1659597",
    "wikipedia": "en:Baglung"
  }
},
{
  "type": "node",
  "id": 1492980542,
  "lat": 28.7033040,
  "lon": 80.5670170,
  "tags": {
    "capital": "4",
    "name": "धनगढी",
    "name:de": "Dhangadhi",
    "name:en": "Dhangadhi",
    "name:es": "Dhangadhi",
    "name:fr": "Dhangadhi",
    "name:hi": "धनगढी",
    "name:ja": "ダンガディ",
    "name:kn": "ಧಂಗಧಿ",
    "name:ne": "धनगढी",
    "name:ru": "Дхангадхи",
    "place": "city",
    "population": "102000",
    "wikidata": "Q1446993",
    "wikipedia": "en:Dhangadhi"
  }
},
{
  "type": "node",
  "id": 2199663556,
  "lat": 27.0327190,
  "lon": 85.0021900,
  "tags": {
    "capital": "5",
    "hlcit:code": "524 2 06 33 3 001",
    "is_in:district": "बारा",
    "is_in:vdc": "Kalaiya Municipality",
    "is_in:zone": "Narayani",
    "name": "Kalaiya",
    "name:ja": "カライヤ",
    "place": "town",
    "population": "42826",
    "source": "OCHA-ASIA",
    "unocha:pcode": "C-NAR-33-052",
    "unocha:vil_code": "C-NAR-33-052-01-001",
    "unocha:vname": "Kalaiya N.P.",
    "wikidata": "Q2506989",
    "wikipedia": "en:Kalaiya"
  }
},
{
  "type": "node",
  "id": 2307153775,
  "lat": 26.6491910,
  "lon": 85.8000870,
  "tags": {
    "alt_name": "Jaleswar",
    "capital": "5",
    "ele": "53",
    "name": "Jaleshwar",
    "name:bn": "জলেশ্বর",
    "name:ja": "ジャレスワル",
    "place": "town",
    "population": "23533",
    "source:alt_name": "GNS",
    "wikidata": "Q2514515",
    "wikipedia": "en:Jaleshwar"
  }
},
{
  "type": "node",
  "id": 2802955238,
  "lat": 26.7911910,
  "lon": 86.6982420,
  "tags": {
    "name": "Triyuga",
    "name:bn": "ত্রিযুগ",
    "name:ja": "ガイガート",
    "place": "town",
    "population": "70000",
    "source:population": "French Wikipedia",
    "wikidata": "Q1457919",
    "wikipedia": "en:Triyuga"
  }
},
{
  "type": "node",
  "id": 2803154322,
  "lat": 26.5395980,
  "lon": 86.7485500,
  "tags": {
    "capital": "5",
    "name": "Rajbiraj",
    "name:bn": "রাজবিরাজ",
    "name:ja": "ラジビラージ",
    "name:ru": "Раджбирадж",
    "place": "town",
    "population": "37738",
    "wikidata": "Q2463109",
    "wikipedia": "en:Rajbiraj"
  }
},
{
  "type": "node",
  "id": 2924267068,
  "lat": 28.9665746,
  "lon": 80.1785465,
  "tags": {
    "capital": "5",
    "name": "Bhimdatta",
    "name:de": "Bhimdatta",
    "name:en": "Bhimdatta",
    "name:es": "Bhimdatta",
    "name:fr": "Bhimdatta",
    "name:hi": "भिम् डत्ता",
    "name:ja": "マヘンドラナガル",
    "name:kn": "ಭೀಮದತ್ತ",
    "name:ne": "भिमदत्त",
    "name:pl": "Bhimdatta",
    "old_name": "Mahendranagar",
    "place": "city",
    "population": "104444",
    "wikidata": "Q1447167",
    "wikipedia": "en:Bhimdatta"
  }
},
{
  "type": "node",
  "id": 3172617940,
  "lat": 27.7003986,
  "lon": 83.4657667,
  "tags": {
    "alt_name": "Butwal",
    "alt_name_1": "Butwaī",
    "alt_name_2": "Butaul",
    "capital": "4",
    "gns:ufi": "-1021804",
    "int_name": "Butwal",
    "loc_name": "Batauli",
    "long_name": "Butwal Nagarpalika",
    "name": "Butwal",
    "name:en": "Butwal",
    "name:ja": "ブトワル",
    "name:ne": "बुटवल नगरपालिका",
    "nat_name": "Butwal",
    "official_name": "Butwal",
    "old_name": "Khasauli",
    "place": "city",
    "reg_name": "Butwal",
    "short_name": "Btl",
    "source": "GNS",
    "wikidata": "Q11283",
    "wikipedia": "en:Butwal"
  }
},
{
  "type": "node",
  "id": 3345770103,
  "lat": 28.5953870,
  "lon": 81.6284940,
  "tags": {
    "capital": "4",
    "is_in:continent": "Asia",
    "is_in:country": "Nepal",
    "is_in:country_code": "NP",
    "name": "वीरेन्द्रनगर",
    "name:de": "Birendranagar",
    "name:en": "Birendranagar",
    "name:es": "Birendranagar",
    "name:fr": "Birendranagar",
    "name:ja": "ビレンドラナガル",
    "name:kn": "ಬೀರೇಂದ್ರನಗರ",
    "name:ta": "பிறேன்றநகர்",
    "place": "city",
    "population": "47914",
    "population:date": "2011",
    "source:population": "https://www.wikidata.org/wiki/Q865146",
    "wikidata": "Q865146",
    "wikipedia": "en:Birendranagar"
  }
},
{
  "type": "node",
  "id": 3345770104,
  "lat": 26.9825083,
  "lon": 87.3451034,
  "tags": {
    "capital": "5",
    "is_in:country": "Nepal",
    "name": "Dhankuta",
    "name:ja": "ダンクタ",
    "place": "town",
    "population": "26440",
    "wikidata": "Q1530717",
    "wikipedia": "en:Dhankuta"
  }
},
{
  "type": "node",
  "id": 3347570023,
  "lat": 27.6755405,
  "lon": 85.2759827,
  "tags": {
    "name": "Kirtipur",
    "name:en": "Kirtipur",
    "name:ja": "キルティプル",
    "name:ne": "किर्तिपुर",
    "name:pl": "Kirtipur",
    "place": "town",
    "population": "65602",
    "source:population": "French Wikipedia",
    "wikidata": "Q1517030",
    "wikipedia": "en:Kirtipur"
  }
},
{
  "type": "node",
  "id": 3380959036,
  "lat": 28.5282679,
  "lon": 81.1192980,
  "tags": {
    "is_in:continent": "Asia",
    "is_in:country": "Nepal",
    "is_in:country_code": "NP",
    "name": "Tikapur",
    "name:de": "Tikapur",
    "name:en": "Tikapur",
    "name:es": "Tikapur",
    "name:fr": "Tikapur",
    "name:ja": "ティカプル",
    "name:kn": "ಟಿಕಪುರ್",
    "name:ne": "टिकापुर",
    "place": "town",
    "population": "56100",
    "population:date": "2011",
    "source:population": "https://fr.wikipedia.org/wiki/Tikapur",
    "wikidata": "Q1659926",
    "wikipedia": "en:Tikapur"
  }
},
{
  "type": "node",
  "id": 3383645104,
  "lat": 27.6635631,
  "lon": 86.0488323,
  "tags": {
    "name": "भिमेश्वर",
    "name:en": "Bhimeshwar",
    "name:ne": "भिमेश्वर",
    "place": "town",
    "population": "22537",
    "population:date": "2011",
    "source": "GNS",
    "wikidata": "Q1590869",
    "wikipedia": "en:Bhimeshwar"
  }
},
{
  "type": "node",
  "id": 3384312037,
  "lat": 26.8558938,
  "lon": 85.5572948,
  "tags": {
    "capital": "5",
    "name": "Malangwa",
    "name:ja": "マラングワ",
    "place": "town",
    "population": "25102",
    "wikidata": "Q1923693",
    "wikipedia": "en:Malangwa"
  }
},
{
  "type": "node",
  "id": 3496148179,
  "lat": 27.7500000,
  "lon": 85.3333330,
  "tags": {
    "alt_name_1": "Tokna",
    "flag_skip": "lat",
    "name": "Tokha",
    "name:ne": "टोखा",
    "place": "city",
    "population": "5152",
    "source": "GNS",
    "wikidata": "Q20809741",
    "wikipedia": "de:Tokha"
  }
},
{
  "type": "node",
  "id": 3499801960,
  "lat": 27.8952600,
  "lon": 85.1464460,
  "tags": {
    "capital": "5",
    "name": "Bidur",
    "name:ja": "ビドゥール",
    "place": "town",
    "population": "26750",
    "wikidata": "Q1844478",
    "wikipedia": "en:Bidur"
  }
},
{
  "type": "node",
  "id": 3874393280,
  "lat": 27.8965234,
  "lon": 83.9214390,
  "tags": {
    "ISO3166-2": "NP-GA",
    "admin_level": "8",
    "int_name": "Sankhar",
    "name": "Sankhar",
    "name:hi": "साँखर",
    "name:ne": "साँखर",
    "name:pl": "Sakhar",
    "place": "city",
    "population": "4630",
    "wikidata": "Q7402923",
    "wikipedia": "en:Sankhar"
  }
},
{
  "type": "node",
  "id": 3957677257,
  "lat": 28.0980009,
  "lon": 83.8747285,
  "tags": {
    "name": "Putalibazar",
    "place": "town",
    "population": "30704",
    "wikidata": "Q1748919",
    "wikipedia": "de:Putalibazar"
  }
},
{
  "type": "node",
  "id": 4896508190,
  "lat": 27.9969584,
  "lon": 84.6259428,
  "tags": {
    "name": "Gorkha",
    "name:ne": "गोर्खा",
    "place": "city"
  }
},
{
  "type": "node",
  "id": 5417397405,
  "lat": 26.6622505,
  "lon": 87.2748964,
  "tags": {
    "name": "Itahari",
    "name:bn": "ইটাহারি",
    "name:en": "Itahari",
    "name:ne": "इटहरी",
    "name:pl": "Itahari",
    "place": "city",
    "wikidata": "Q1675026",
    "wikipedia": "en:Itahari"
  }
},
{
  "type": "node",
  "id": 5809166582,
  "lat": 28.0394954,
  "lon": 82.4855998,
  "tags": {
    "name": "घोराही",
    "name:en": "Ghorahi",
    "name:fr": "Ghorahi",
    "name:ne": "घोराही",
    "old_name:fr": "Tribhuwannagar",
    "place": "city",
    "wikidata": "Q1447290",
    "wikipedia": "en:Ghorahi"
  }
},
{
  "type": "node",
  "id": 5874653695,
  "lat": 28.1331966,
  "lon": 82.2981832,
  "tags": {
    "name": "तुलसीपुर",
    "name:en": "Tulsipur",
    "name:fr": "Tulsipur",
    "name:hi": "तुलसीपुर",
    "name:ne": "तुलसीपुर",
    "place": "city",
    "wikidata": "Q1766076"
  }
},
{
  "type": "node",
  "id": 9802287500,
  "lat": 27.4893578,
  "lon": 83.4438486,
  "tags": {
    "name": "Bir Path",
    "place": "city"
  }
}

  ]
}